# From MPC 93589
295P/LINEAR,e,21.0740,7.4334,72.8841,5.306404,0.0806313,0.61630564,218.5122,10/04.0/2021,2000,g 12.0,4.0
# From MPEC 2021-N06
296P/Garradd,e,25.2290,263.6024,350.0830,3.496061,0.1507771,0.47874096,57.4761,10/04.0/2021,2000,g 14.0,4.0
# From MPC102956
297P/Beshore,e,10.3265,97.6578,132.5794,3.444411,0.1541813,0.31952474,39.1431,10/04.0/2021,2000,g 15.0,4.0
# From MPC114609
298P/Christensen,e,7.8708,52.8224,100.6664,3.591207,0.1448250,0.38651804,56.8782,10/04.0/2021,2000,g 15.0,4.0
# From MPC101100
299P/Catalina-PANSTARRS,e,10.4728,271.6239,323.8706,4.385765,0.1073090,0.28129728,259.1250,10/04.0/2021,2000,g 11.5,4.0
# From MPC114609
300P/Catalina,e,5.6746,95.6508,222.9058,2.699813,0.2221793,0.69180154,236.9098,10/04.0/2021,2000,g 16.0,4.0
# From MPC 89014
301P/LINEAR-NEAT,e,10.3396,351.1746,193.6755,5.739263,0.0716836,0.58516596,186.0450,10/04.0/2021,2000,g 13.0,4.0
# From MPEC 2020-HN5
302P/Lemmon-PANSTARRS,e,6.0341,121.7529,208.2953,4.275456,0.1114886,0.23026275,220.5892,10/04.0/2021,2000,g 12.5,4.0
# From MPC 92278
303P/NEAT,e,7.0218,347.9724,356.9042,5.046558,0.0869383,0.51079356,221.0169,10/04.0/2021,2000,g 13.5,4.0
# From MPEC 2020-N08
304P/Ory,e,2.6068,58.9245,335.2358,3.150566,0.1762468,0.60062166,73.5907,10/04.0/2021,2000,g 16.5,4.0
# From MPC101100
305P/Skiff,e,11.6541,240.1100,147.3043,4.643244,0.0985081,0.69349645,247.6657,10/04.0/2021,2000,g 18.0,4.0
# From MPC 92278
306P/LINEAR,e,8.3116,341.3724,0.8513,3.123334,0.1785568,0.59333866,110.7067,10/04.0/2021,2000,g 19.0,4.0
# From MPC 92278
307P/LINEAR,e,4.4350,158.1615,222.1264,5.791958,0.0707076,0.67497750,175.2096,10/04.0/2021,2000,g 15.0,4.0
# From MPC109148
308P/Lagerkvist-Carsenty,e,4.8516,63.0715,333.5900,6.602683,0.0580929,0.36374671,136.0448,10/04.0/2021,2000,g 13.0,2.0
# From MPC 94284
309P/LINEAR,e,17.0237,10.1457,49.9428,4.372120,0.1078117,0.61779094,262.1620,10/04.0/2021,2000,g 15.0,4.0
# From MPC 98566
310P/Hill,e,13.1278,8.9250,31.8056,4.179016,0.1153700,0.42196424,273.4109,10/04.0/2021,2000,g 13.5,4.0
# From MPEC 2021-BE3
311P/PANSTARRS,e,4.9694,279.2220,144.5510,2.188695,0.3043870,0.11558200,110.0737,10/04.0/2021,2000,g 17.0,4.0
# From MPEC 2021-BE3
312P/NEAT,e,19.7686,144.6685,207.5700,3.467274,0.1526588,0.42788765,57.0820,10/04.0/2021,2000,g 16.0,4.0
# From MPEC 2021-S45
313P/Gibbs,e,10.9821,105.9732,254.7239,3.162957,0.1752121,0.23504504,93.9825,10/04.0/2021,2000,g 15.0,4.0
# From MPC105243
314P/Montani,e,3.9810,267.6111,214.0828,7.266640,0.0503157,0.41605003,91.6986,10/04.0/2021,2000,g  9.5,4.0
# From MPEC 2021-N06
315P/LONEOS,e,17.7512,68.8797,65.7152,4.939645,0.0897760,0.52116684,159.0448,10/04.0/2021,2000,g 11.0,4.0
# From MPC 92279
316P/LONEOS-Christensen,e,9.8366,246.5700,193.0356,4.366144,0.1080331,0.15670482,236.7477,10/04.0/2021,2000,g 13.5,4.0
# From MPEC 2020-C98
317P/WISE,e,11.9501,275.5007,334.8771,2.963932,0.1931531,0.57048623,72.0188,10/04.0/2021,2000,g 17.5,4.0
# From MPC102103
318P/McNaught-Hartley,e,17.8804,35.5642,313.2090,7.499313,0.0479923,0.67531063,104.1808,10/04.0/2021,2000,g  8.5,6.0
# From MPC 97499
319P/Catalina-McNaught,e,15.0948,111.3722,203.6713,3.566600,0.1463263,0.66661737,333.8911,10/04.0/2021,2000,g 15.0,4.0
# From MPC 96281
320P/McNaught,e,4.9088,295.9301,0.7770,3.093506,0.1811456,0.68566664,47.0743,10/04.0/2021,2000,g 20.5,4.0
# From MPC105243
321P/SOHO,e,20.0884,165.0187,172.7455,2.423457,0.2612469,0.98111644,0.0000,01/17.3805/2020,2000,g 20.0,4.0
# From MPC102103
322P/SOHO,e,11.4677,351.5265,56.8732,2.507937,0.2481585,0.97985499,0.0000,08/21.1063/2023,2000,g 19.0,4.0
# From MPEC 2016-Y36
323P/SOHO,e,5.3384,324.3758,353.0556,2.582711,0.2374599,0.98484071,0.0000,01/17.7725/2021,2000,g 20.0,4.0
# From MPEC 2021-S45
324P/LaSagra,e,21.4023,270.5965,57.6102,3.095913,0.1809343,0.15421282,27.3941,10/04.0/2021,2000,g 13.0,4.0
# From MPC114609
325P/Yang-Gao,e,16.6939,257.5640,343.6967,3.523372,0.1490274,0.59346493,333.7458,10/04.0/2021,2000,g 14.0,4.0
# From MPC103849
326P/Hill,e,2.4709,99.8102,278.6049,4.063155,0.1203397,0.31788042,261.6059,10/04.0/2021,2000,g 13.5,4.0
# From MPC 97499
327P/Van Ness,e,36.2512,173.9851,185.0432,3.561997,0.1466101,0.56310975,311.1128,10/04.0/2021,2000,g 16.0,4.0
# From MPC109148
328P/LONEOS-Tucker,e,17.6733,341.6362,30.4971,4.193904,0.1147562,0.55232611,242.0301,10/04.0/2021,2000,g 14.5,4.0
# From MPC101101
329P/LINEAR-Catalina,e,21.6775,87.6710,343.5274,5.190805,0.0833397,0.67735030,177.9435,10/04.0/2021,2000,g 13.5,4.0
# From MPC105243
330P/Catalina,e,15.6958,293.0936,188.9341,6.627566,0.0577661,0.54831127,107.7442,10/04.0/2021,2000,g 12.0,4.0
# From MPEC 2021-BE3
331P/Gibbs,e,9.7379,216.7682,184.0369,3.004653,0.1892399,0.04104525,69.6348,10/04.0/2021,2000,g 12.0,4.0
# From MPEC 2016-K18
332P/Ikeya-Murakami,e,9.3801,3.7859,152.3373,3.089157,0.1815282,0.48946311,8.4572,10/04.0/2021,2000,g 18.0,4.0
# From MPEC 2016-EI8
332P-B/Ikeya-Murakami,e,9.3805,3.8028,152.3711,3.082329,0.1821317,0.48970701,359.9699,03/17.0/2016,2000,g 19.0,4.0
# From MPEC 2016-K18
332P-C/Ikeya-Murakami,e,9.3792,3.7863,152.3286,3.089123,0.1815312,0.48946857,8.4715,10/04.0/2021,2000,g 16.5,4.0
# From MPEC 2016-ED0
332P-D/Ikeya-Murakami,e,9.3761,3.7923,152.4393,3.081138,0.1822373,0.48977814,359.9486,03/17.0/2016,2000,g 19.0,4.0
# From MPEC 2016-ED0
332P-E/Ikeya-Murakami,e,9.3774,3.8228,152.2825,3.079877,0.1823493,0.48922008,359.9889,03/17.0/2016,2000,g 21.0,4.0
# From MPEC 2016-ED0
332P-F/Ikeya-Murakami,e,9.5293,3.4757,152.8203,3.163214,0.1751908,0.49918860,359.8501,03/17.0/2016,2000,g 21.0,4.0
# From MPEC 2016-ED0
332P-G/Ikeya-Murakami,e,9.2523,3.6955,154.4000,3.050519,0.1849880,0.49200362,359.9006,03/19.0/2016,2000,g 19.0,4.0
# From MPC100285
332P-H/Ikeya-Murakami,e,9.3797,3.7861,152.3293,3.089308,0.1815149,0.48950375,8.4058,10/04.0/2021,2000,g 19.0,4.0
# From MPEC 2016-ED0
332P-I/Ikeya-Murakami,e,9.3791,3.8048,152.3297,3.081767,0.1821815,0.48955490,359.9360,03/17.0/2016,2000,g 20.5,2.0
# From MPEC 2016-EI8
332P-J/Ikeya-Murakami,e,9.4296,3.6729,152.7712,3.115165,0.1792596,0.49429435,359.8613,03/17.0/2016,2000,g 20.5,2.0
# From MPEC 2020-L06
333P/LINEAR,e,131.9823,115.6276,25.9965,4.219576,0.1137106,0.73674978,228.9840,10/04.0/2021,2000,g 15.0,4.0
# From MPC115888
334P/NEAT,e,20.4221,90.6565,90.1052,6.838908,0.0551092,0.35117193,87.1228,10/04.0/2021,2000,g 10.5,4.0
# From MPC100285
335P/Gibbs,e,7.2934,330.8474,162.2918,3.577430,0.1456623,0.54597691,314.5511,10/04.0/2021,2000,g 17.0,4.0
# From MPC105244
336P/McNaught,e,17.8329,298.2364,308.7619,5.033391,0.0872797,0.44479442,148.8151,10/04.0/2021,2000,g 13.5,4.0
# From MPEC 2021-N06
337P/WISE,e,15.3713,106.0665,161.0142,3.286621,0.1654168,0.49672069,315.3167,10/04.0/2021,2000,g 17.0,4.0
# From MPC104796
338P/McNaught,e,25.3831,9.7939,4.4140,3.896390,0.1281476,0.41168165,227.5095,10/04.0/2021,2000,g 12.0,4.0
# From MPC101101
339P/Gibbs,e,5.7334,172.7268,27.5060,3.697277,0.1386376,0.63547734,263.4936,10/04.0/2021,2000,g 17.0,4.0
# From MPC133426
340P/Boattini,e,2.0790,291.7129,35.8866,4.250840,0.1124584,0.28084851,199.9126,10/04.0/2021,2000,g 14.3,4.0
# From MPEC 2021-BE3
341P/Gibbs,e,3.7963,29.9735,312.1834,4.292712,0.1108170,0.41563144,216.4066,10/04.0/2021,2000,g 12.5,4.0
# From MPC101101
342P/SOHO,e,11.6663,27.7074,73.2646,3.042803,0.1856920,0.98276849,0.0000,10/19.3009/2021,2000,g  9.0,4.0
# From MPC109148
343P/NEAT-LONEOS,e,5.5855,257.1854,137.3886,5.459495,0.0772637,0.58449679,132.0508,10/04.0/2021,2000,g 14.0,4.0
# From MPC109148
344P/Read,e,3.4915,273.1624,140.3794,4.864497,0.0918644,0.42224981,165.1511,10/04.0/2021,2000,g 13.0,4.0
# From MPC109148
345P/LINEAR,e,2.7273,154.5095,196.4367,4.037784,0.1214757,0.22122958,231.1649,10/04.0/2021,2000,g 12.0,4.0
# From MPC110086
346P/Catalina,e,22.1889,102.4631,335.9624,4.475181,0.1041090,0.50253133,176.3293,10/04.0/2021,2000,g 14.0,4.0
# From MPC108599
347P/PANSTARRS,e,11.7508,261.0257,98.3620,3.605511,0.1439640,0.38591306,265.8432,10/04.0/2021,2000,g 15.0,4.0
# From MPEC 2020-SI8
348P/PANSTARRS,e,17.7404,312.9404,135.6537,3.150051,0.1762900,0.30670639,336.8186,10/04.0/2021,2000,g 14.0,4.0
# From MPC112394
349P/Lemmon,e,5.4909,331.7427,256.0265,3.573843,0.1458817,0.29878352,218.9881,10/04.0/2021,2000,g 14.0,4.0
# From MPC111775
350P/McNaught,e,7.3588,65.3192,139.9742,4.089641,0.1191726,0.09191323,165.6811,10/04.0/2021,2000,g 14.0,4.0
# From MPC105244
351P/Wiegert-PANSTARRS,e,12.7861,283.4461,352.6807,4.437817,0.1054265,0.29570639,226.2233,10/04.0/2021,2000,g 12.5,4.0
# From MPC110086
352P/Skiff,e,21.0099,28.0444,309.2308,6.639366,0.0576122,0.61824211,90.1187,10/04.0/2021,2000,g 11.5,4.0
# From MPEC 2020-AA5
353P/McNaught,e,28.4223,121.5584,230.3976,4.171030,0.1157015,0.47027312,159.8675,10/04.0/2021,2000,g 14.5,4.0
# From MPC105545
354P/LINEAR,e,5.2556,320.1291,132.9106,2.289373,0.2845307,0.12569775,149.3518,10/04.0/2021,2000,g 15.5,4.0
# From MPEC 2020-AA5
355P/LINEAR-NEAT,e,11.0417,51.4302,336.2605,3.471307,0.1523928,0.50740065,221.2140,10/04.0/2021,2000,g 15.5,2.0
# From MPEC 2021-F20
356P/WISE,e,9.6379,160.7972,225.9873,4.158961,0.1162055,0.35526539,161.0812,10/04.0/2021,2000,g 14.0,4.0
# From MPC114609
357P/Hill,e,6.3128,44.5646,1.3873,4.459826,0.1046471,0.43503918,128.0605,10/04.0/2021,2000,g 15.5,4.0
# From MPEC 2020-HN5
358P/PANSTARRS,e,11.0586,85.7047,299.7394,3.147229,0.1765272,0.23861405,224.3725,10/04.0/2021,2000,g 18.0,4.0
# From MPC110086
359P/LONEOS,e,10.2676,149.7558,200.1785,4.639611,0.0986238,0.32420096,148.3225,10/04.0/2021,2000,g 13.5,4.0
# From MPC108599
360P/WISE,e,24.1088,2.1905,354.1396,3.701748,0.1383865,0.49906923,208.4070,10/04.0/2021,2000,g 19.5,6.0
# From MPC114609
361P/Spacewatch,e,13.8955,203.2507,219.0313,4.937743,0.0898279,0.43825823,106.8624,10/04.0/2021,2000,g 12.0,4.0
# From MPEC 2017-V13
362P/,e,15.5562,192.5594,53.6991,3.969490,0.1246241,0.27925195,232.8142,10/04.0/2021,2000,g 12.9,2.0
# From MPC114609
363P/Lemmon,e,5.4098,146.8875,341.2364,3.555437,0.1470160,0.52360967,193.1947,10/04.0/2021,2000,g 17.5,4.0
# From MPEC 2021-F20
